OBJECT_NAME,OBJECT_ID,EPOCH,MEAN_MOTION,ECCENTRICITY,INCLINATION,RA_OF_ASC_NODE,ARG_OF_PERICENTER,MEAN_ANOMALY,EPHEMERIS_TYPE,CLASSIFICATION_TYPE,NORAD_CAT_ID,ELEMENT_SET_NO,REV_AT_EPOCH,BSTAR,MEAN_MOTION_DOT,MEAN_MOTION_DDOT
GEOSCAN 3 (RS92S3),2025-155T,2026-07-19T05:54:49.173408,15.36395084,.00084287,97.4559,170.5249,76.6671,283.5512,0,U,64893,999,8577,.28532676E-3,.10059E-3,0
INNOSAT 3 (RS92S0),2025-155U,2026-07-19T05:50:07.047168,15.46016890,.00080048,97.4504,172.5637,81.5325,278.6831,0,U,64894,999,8591,.46286984E-3,.22561E-3,0
KNACKSAT-2,1998-067XZ,2026-07-19T05:22:27.952032,15.62683564,.00081481,51.6273,132.9886,342.4900,17.5813,0,U,67683,999,2528,.37973859E-3,.34381E-3,0
