KNACKSAT-2              
1 67683U 98067XZ  26200.22393463  .00034381  00000+0  37974-3 0  9993
2 67683  51.6273 132.9886 0008148 342.4900  17.5813 15.62683564 25284
GEOSCAN 3 (RS92S3)      
1 64893U 25155T   26200.24640247  .00010059  00000+0  28533-3 0  9995
2 64893  97.4559 170.5249 0008428  76.6671 283.5512 15.36395084 85771
INNOSAT 3 (RS92S0)      
1 64894U 25155U   26200.24313712  .00022561  00000+0  46287-3 0  9997
2 64894  97.4504 172.5637 0008004  81.5325 278.6831 15.46016890 85917
